{"type":"FeatureCollection","features":[{"type":"Feature","properties":{"name":"Antarctica"},"geometry":{"type":"MultiPolygon","coordinates":[[[[-48.66,-78.05],[-48.15,-78.05],[-46.66,-77.83],[-45.15,-78.05],[-43.92,-78.48],[-43.49,-79.09],[-43.37,-79.52],[-43.33,-80.03],[-44.88,-80.34],[-46.51,-80.59],[-48.39,-80.83],[-50.48,-81.03],[-52.85,-80.97],[-54.16,-80.63],[-53.99,-80.22],[-51.85,-79.95],[-50.99,-79.61],[-50.36,-79.18],[-49.91,-78.81],[-49.31,-78.46],[-48.66,-78.05],[-48.66,-78.05]]],[[[-66.29,-80.26],[-64.04,-80.29],[-61.88,-80.39],[-61.14,-79.98],[-60.61,-79.63],[-59.57,-80.04],[-59.87,-80.55],[-60.16,-81],[-62.26,-80.86],[-64.49,-80.92],[-65.74,-80.59],[-65.74,-80.55],[-66.29,-80.26]]],[[[-73.92,-71.27],[-73.92,-71.27],[-73.23,-71.15],[-72.07,-71.19],[-71.78,-70.68],[-71.72,-70.31],[-71.74,-69.51],[-71.17,-69.04],[-70.25,-68.88],[-69.72,-69.25],[-69.49,-69.62],[-69.06,-70.07],[-68.73,-70.51],[-68.45,-70.96],[-68.33,-71.41],[-68.51,-71.8],[-68.78,-72.17],[-69.96,-72.31],[-71.08,-72.5],[-72.39,-72.48],[-71.9,-72.09],[-73.07,-72.23],[-74.19,-72.37],[-74.95,-72.07],[-75.01,-71.66],[-73.92,-71.27]]],[[[-102.33,-71.89],[-102.33,-71.89],[-101.7,-71.72],[-100.43,-71.85],[-98.98,-71.93],[-97.88,-72.07],[-96.79,-71.95],[-96.2,-72.52],[-96.98,-72.44],[-98.2,-72.48],[-99.43,-72.44],[-100.78,-72.5],[-101.8,-72.31],[-102.33,-71.89]]],[[[-122.62,-73.66],[-122.62,-73.66],[-122.41,-73.32],[-121.21,-73.5],[-119.92,-73.66],[-118.72,-73.48],[-119.29,-73.83],[-120.23,-74.09],[-121.62,-74.01],[-122.62,-73.66]]],[[[-127.28,-73.46],[-127.28,-73.46],[-126.56,-73.25],[-125.56,-73.48],[-124.03,-73.87],[-124.62,-73.83],[-125.91,-73.74],[-127.28,-73.46]]],[[[-163.71,-78.6],[-163.71,-78.6],[-163.11,-78.22],[-161.25,-78.38],[-160.25,-78.69],[-159.48,-79.05],[-159.21,-79.5],[-161.13,-79.63],[-162.44,-79.28],[-163.03,-78.93],[-163.07,-78.87],[-163.71,-78.6]]],[[[180,-84.71],[180,-90],[-180,-90],[-180,-84.71],[-179.94,-84.72],[-179.06,-84.14],[-177.26,-84.45],[-177.14,-84.42],[-176.08,-84.1],[-175.95,-84.11],[-175.83,-84.12],[-174.38,-84.53],[-173.12,-84.12],[-172.89,-84.06],[-169.95,-83.88],[-169,-84.12],[-168.53,-84.24],[-167.02,-84.57],[-164.18,-84.83],[-161.93,-85.14],[-158.07,-85.37],[-155.19,-85.1],[-150.94,-85.3],[-148.53,-85.61],[-145.89,-85.32],[-143.11,-85.04],[-142.89,-84.57],[-146.83,-84.53],[-150.06,-84.3],[-150.9,-83.9],[-153.59,-83.69],[-153.41,-83.24],[-153.04,-82.83],[-152.67,-82.45],[-152.86,-82.04],[-154.53,-81.77],[-155.29,-81.42],[-156.84,-81.1],[-154.41,-81.16],[-152.1,-81],[-150.65,-81.34],[-148.87,-81.04],[-147.22,-80.67],[-146.42,-80.34],[-146.77,-79.93],[-148.06,-79.65],[-149.53,-79.36],[-151.59,-79.3],[-153.39,-79.16],[-155.33,-79.06],[-155.98,-78.69],[-157.27,-78.38],[-158.05,-78.03],[-158.37,-76.89],[-157.88,-76.99],[-156.97,-77.3],[-155.33,-77.2],[-153.74,-77.07],[-152.92,-77.5],[-151.33,-77.4],[-150,-77.18],[-148.75,-76.91],[-147.61,-76.58],[-146.1,-76.48],[-146.14,-76.11],[-146.5,-75.73],[-146.2,-75.38],[-144.91,-75.2],[-144.32,-75.54],[-142.79,-75.34],[-141.64,-75.09],[-140.21,-75.07],[-138.86,-74.97],[-137.51,-74.73],[-136.43,-74.52],[-135.21,-74.3],[-134.43,-74.36],[-133.75,-74.44],[-132.26,-74.3],[-130.93,-74.48],[-129.55,-74.46],[-128.24,-74.32],[-126.89,-74.42],[-125.4,-74.52],[-124.01,-74.48],[-122.56,-74.5],[-121.07,-74.52],[-119.7,-74.48],[-118.68,-74.19],[-117.47,-74.03],[-116.22,-74.24],[-115.02,-74.07],[-113.94,-73.71],[-113.3,-74.03],[-112.95,-74.38],[-112.3,-74.71],[-111.26,-74.42],[-110.07,-74.79],[-108.71,-74.91],[-107.56,-75.18],[-106.15,-75.13],[-104.88,-74.95],[-103.37,-74.99],[-102.02,-75.13],[-100.65,-75.3],[-100.12,-74.87],[-100.76,-74.54],[-101.25,-74.19],[-102.55,-74.11],[-103.11,-73.73],[-103.33,-73.36],[-103.68,-72.62],[-102.92,-72.75],[-101.61,-72.81],[-100.31,-72.75],[-99.14,-72.91],[-98.12,-73.21],[-97.69,-73.56],[-96.34,-73.62],[-95.04,-73.48],[-93.67,-73.28],[-92.44,-73.17],[-91.42,-73.4],[-90.09,-73.32],[-89.23,-72.56],[-88.42,-73.01],[-87.27,-73.19],[-86.01,-73.09],[-85.19,-73.48],[-83.88,-73.52],[-82.67,-73.64],[-81.47,-73.85],[-80.69,-73.48],[-80.3,-73.13],[-79.3,-73.52],[-77.93,-73.42],[-76.91,-73.64],[-76.22,-73.97],[-74.89,-73.87],[-73.85,-73.66],[-72.83,-73.4],[-71.62,-73.26],[-70.21,-73.15],[-68.94,-73.01],[-67.96,-72.79],[-67.37,-72.48],[-67.13,-72.05],[-67.25,-71.64],[-67.56,-71.25],[-67.92,-70.85],[-68.23,-70.46],[-68.49,-70.11],[-68.54,-69.72],[-68.45,-69.33],[-67.98,-68.95],[-67.58,-68.54],[-67.43,-68.15],[-67.62,-67.72],[-67.74,-67.33],[-67.25,-66.88],[-66.7,-66.58],[-66.06,-66.21],[-65.37,-65.9],[-64.57,-65.6],[-64.18,-65.17],[-63.63,-64.9],[-63,-64.64],[-62.04,-64.58],[-61.41,-64.27],[-60.71,-64.07],[-59.89,-63.96],[-59.16,-63.7],[-58.59,-63.39],[-57.81,-63.27],[-57.22,-63.53],[-57.6,-63.86],[-58.61,-64.15],[-59.05,-64.37],[-59.79,-64.21],[-60.61,-64.31],[-61.3,-64.54],[-62.02,-64.8],[-62.51,-65.09],[-62.65,-65.48],[-62.59,-65.86],[-62.12,-66.19],[-62.81,-66.43],[-63.75,-66.5],[-64.29,-66.84],[-64.88,-67.15],[-65.51,-67.58],[-65.67,-67.95],[-65.31,-68.37],[-64.78,-68.68],[-63.96,-68.91],[-63.2,-69.23],[-62.79,-69.62],[-62.57,-69.99],[-62.28,-70.38],[-61.81,-70.72],[-61.51,-71.09],[-61.38,-72.01],[-61.08,-72.38],[-61,-72.77],[-60.69,-73.17],[-60.83,-73.7],[-61.38,-74.11],[-61.96,-74.44],[-63.3,-74.58],[-63.75,-74.93],[-64.35,-75.26],[-65.86,-75.64],[-67.19,-75.79],[-68.45,-76.01],[-69.8,-76.22],[-70.6,-76.63],[-72.21,-76.67],[-73.97,-76.63],[-75.56,-76.71],[-77.24,-76.71],[-76.93,-77.1],[-75.4,-77.28],[-74.28,-77.56],[-73.66,-77.91],[-74.77,-78.22],[-76.5,-78.12],[-77.93,-78.38],[-77.98,-78.79],[-78.02,-79.18],[-76.85,-79.51],[-76.63,-79.89],[-75.36,-80.26],[-73.24,-80.42],[-71.44,-80.69],[-70.01,-81],[-68.19,-81.32],[-65.7,-81.47],[-63.26,-81.75],[-61.55,-82.04],[-59.69,-82.38],[-58.71,-82.85],[-58.22,-83.22],[-57.01,-82.87],[-55.36,-82.57],[-53.62,-82.26],[-51.54,-82],[-49.76,-81.73],[-47.27,-81.71],[-44.83,-81.85],[-42.81,-82.08],[-42.16,-81.65],[-40.77,-81.36],[-38.24,-81.34],[-36.27,-81.12],[-34.39,-80.91],[-32.31,-80.77],[-30.1,-80.59],[-28.55,-80.34],[-29.25,-79.99],[-29.69,-79.63],[-29.69,-79.26],[-31.62,-79.3],[-33.68,-79.46],[-35.64,-79.46],[-35.91,-79.08],[-35.78,-78.34],[-35.33,-78.12],[-33.9,-77.89],[-32.21,-77.65],[-31,-77.36],[-29.78,-77.07],[-28.88,-76.67],[-27.51,-76.5],[-26.16,-76.36],[-25.47,-76.28],[-23.93,-76.24],[-22.46,-76.11],[-21.22,-75.91],[-20.01,-75.67],[-18.91,-75.44],[-17.52,-75.13],[-16.64,-74.79],[-15.7,-74.5],[-15.41,-74.11],[-16.47,-73.87],[-16.11,-73.46],[-15.45,-73.15],[-14.41,-72.95],[-13.31,-72.72],[-12.29,-72.4],[-11.51,-72.01],[-11.02,-71.54],[-10.3,-71.27],[-9.1,-71.32],[-8.61,-71.66],[-7.42,-71.7],[-7.38,-71.32],[-6.87,-70.93],[-5.79,-71.03],[-5.54,-71.4],[-4.34,-71.46],[-3.05,-71.29],[-1.8,-71.17],[-0.66,-71.23],[-0.23,-71.64],[0.87,-71.3],[1.89,-71.13],[3.02,-70.99],[4.14,-70.85],[5.16,-70.62],[6.27,-70.46],[7.14,-70.25],[7.74,-69.89],[8.49,-70.15],[9.53,-70.01],[10.25,-70.48],[10.82,-70.83],[11.95,-70.64],[12.4,-70.25],[13.42,-69.97],[14.73,-70.03],[15.13,-70.4],[15.95,-70.03],[17.03,-69.91],[18.2,-69.87],[19.26,-69.89],[20.38,-70.01],[21.45,-70.07],[21.92,-70.4],[22.57,-70.7],[23.67,-70.52],[24.84,-70.48],[25.98,-70.48],[27.09,-70.46],[28.09,-70.32],[29.15,-70.21],[30.03,-69.93],[30.97,-69.76],[31.99,-69.66],[32.75,-69.38],[33.3,-68.84],[33.87,-68.5],[34.91,-68.66],[35.3,-69.01],[36.16,-69.25],[37.2,-69.17],[37.91,-69.52],[38.65,-69.78],[39.67,-69.54],[40.02,-69.11],[40.92,-68.93],[41.96,-68.6],[42.94,-68.46],[44.11,-68.27],[44.9,-68.05],[45.72,-67.82],[46.5,-67.6],[47.44,-67.72],[48.34,-67.37],[48.99,-67.09],[49.93,-67.11],[50.75,-66.88],[50.95,-66.52],[51.79,-66.25],[52.61,-66.05],[53.61,-65.9],[54.53,-65.82],[55.41,-65.88],[56.36,-65.97],[57.16,-66.25],[57.26,-66.68],[58.14,-67.01],[58.74,-67.29],[59.94,-67.41],[60.61,-67.68],[61.43,-67.95],[62.39,-68.01],[63.19,-67.82],[64.05,-67.41],[64.99,-67.62],[65.97,-67.74],[66.91,-67.86],[67.89,-67.93],[68.89,-67.93],[69.71,-68.97],[69.67,-69.23],[69.56,-69.68],[68.6,-69.93],[67.81,-70.31],[67.95,-70.7],[69.07,-70.68],[68.93,-71.07],[68.42,-71.44],[67.95,-71.85],[68.71,-72.17],[69.87,-72.26],[71.02,-72.09],[71.57,-71.7],[71.91,-71.32],[72.45,-71.01],[73.08,-70.72],[73.34,-70.36],[73.86,-69.87],[74.49,-69.78],[75.63,-69.74],[76.63,-69.62],[77.64,-69.46],[78.13,-69.07],[78.43,-68.7],[79.11,-68.33],[80.09,-68.07],[80.94,-67.88],[81.48,-67.54],[82.05,-67.37],[82.78,-67.21],[83.78,-67.31],[84.68,-67.21],[85.66,-67.09],[86.75,-67.15],[87.48,-66.88],[87.99,-66.21],[88.36,-66.48],[88.83,-66.95],[89.67,-67.15],[90.63,-67.23],[91.59,-67.11],[92.61,-67.19],[93.55,-67.21],[94.18,-67.11],[95.02,-67.17],[95.78,-67.39],[96.68,-67.25],[97.76,-67.25],[98.68,-67.11],[99.72,-67.25],[100.38,-66.92],[100.89,-66.58],[101.58,-66.31],[102.83,-65.56],[103.48,-65.7],[104.24,-65.97],[104.91,-66.33],[106.18,-66.93],[107.16,-66.95],[108.08,-66.95],[109.16,-66.84],[110.24,-66.7],[111.06,-66.43],[111.74,-66.13],[112.86,-66.09],[113.6,-65.88],[114.39,-66.07],[114.9,-66.39],[115.6,-66.7],[116.7,-66.66],[117.38,-66.92],[118.58,-67.17],[119.83,-67.27],[120.87,-67.19],[121.65,-66.88],[122.32,-66.56],[123.22,-66.48],[124.12,-66.62],[125.16,-66.72],[126.1,-66.56],[127,-66.56],[127.88,-66.66],[128.8,-66.76],[129.7,-66.58],[130.78,-66.43],[131.8,-66.39],[132.94,-66.39],[133.86,-66.29],[134.76,-66.21],[135.03,-65.72],[135.07,-65.31],[135.7,-65.58],[135.87,-66.03],[136.21,-66.45],[136.62,-66.78],[137.46,-66.95],[138.6,-66.9],[139.91,-66.88],[140.81,-66.82],[142.12,-66.82],[143.06,-66.8],[144.37,-66.84],[145.49,-66.92],[146.2,-67.23],[146,-67.6],[146.65,-67.9],[147.72,-68.13],[148.84,-68.39],[150.13,-68.56],[151.48,-68.72],[152.5,-68.87],[153.64,-68.89],[154.28,-68.56],[155.17,-68.84],[155.93,-69.15],[156.81,-69.38],[158.03,-69.48],[159.18,-69.6],[159.67,-69.99],[160.81,-70.23],[161.57,-70.58],[162.69,-70.74],[163.84,-70.72],[164.92,-70.78],[166.11,-70.76],[167.31,-70.83],[168.43,-70.97],[169.46,-71.21],[170.5,-71.4],[171.21,-71.7],[171.09,-72.09],[170.56,-72.44],[170.11,-72.89],[169.76,-73.24],[169.29,-73.66],[167.98,-73.81],[167.39,-74.17],[166.09,-74.38],[165.64,-74.77],[164.96,-75.15],[164.23,-75.46],[163.82,-75.87],[163.57,-76.24],[163.47,-76.69],[163.49,-77.07],[164.06,-77.46],[164.27,-77.83],[164.74,-78.18],[166.6,-78.32],[167,-78.75],[165.19,-78.91],[163.67,-79.12],[161.77,-79.16],[160.92,-79.73],[160.75,-80.2],[160.32,-80.57],[159.79,-80.95],[161.12,-81.28],[161.63,-81.69],[162.49,-82.06],[163.71,-82.4],[165.1,-82.71],[166.6,-83.02],[168.9,-83.34],[169.4,-83.83],[172.28,-84.04],[172.48,-84.12],[173.22,-84.41],[175.99,-84.16],[178.28,-84.47],[180,-84.71]]]]}}]}